OBJECT_NAME,OBJECT_ID,EPOCH,MEAN_MOTION,ECCENTRICITY,INCLINATION,RA_OF_ASC_NODE,ARG_OF_PERICENTER,MEAN_ANOMALY,EPHEMERIS_TYPE,CLASSIFICATION_TYPE,NORAD_CAT_ID,ELEMENT_SET_NO,REV_AT_EPOCH,BSTAR,MEAN_MOTION_DOT,MEAN_MOTION_DDOT
GOMX-1,2013-066Q,2026-07-16T19:19:42.250368,14.69544995,.0128111,97.6462,36.3989,343.0273,16.6667,0,U,39430,999,67426,.10639E-3,.663E-5,0
CUBEBUG-2 (LO-74),2013-066AA,2026-07-16T19:15:47.811744,14.93973680,.0055539,97.8917,146.9130,289.9004,69.6236,0,U,39440,999,68141,.20214E-3,.2156E-4,0
NEE-02 KRYSAOR,2013-066AB,2026-07-16T08:26:59.616096,14.86741614,.0065307,97.8898,136.3620,335.4659,24.3453,0,U,39441,999,68053,.12224E-3,.1071E-4,0
FUNCUBE-1 (AO-73),2013-066AE,2026-07-16T11:39:15.439968,15.09827473,.0037986,97.8291,169.5530,103.5264,257.0201,0,U,39444,999,68408,.24422E-3,.3947E-4,0
UWE-3,2013-066AG,2026-07-16T19:46:31.675008,14.97205791,.0047571,97.8716,154.1042,218.9248,140.8545,0,U,39446,999,68201,.1784E-3,.2047E-4,0
SMDC ONE 2.4,2013-072H,2026-07-16T13:36:56.285568,15.18838571,.0148115,120.4894,105.5704,49.9439,311.4522,0,U,39469,999,12229,.3569E-3,.9614E-4,0
COSMOS 2488 (RODNIK-S 7),2013-076A,2026-07-16T21:38:31.080768,12.42906459,.0020558,82.4858,150.1838,33.9645,326.2747,0,U,39483,999,56958,.47385E-3,.76E-6,0
COSMOS 2489 (RODNIK-S 8),2013-076B,2026-07-16T21:03:42.523200,12.42880288,.0022372,82.4894,151.5874,33.7288,326.5210,0,U,39484,999,56963,.43523E-3,.7E-6,0
COSMOS 2490 (RODNIK-S 9),2013-076C,2026-07-16T20:23:17.130912,12.42879411,.0022762,82.4841,149.6594,48.7056,311.5979,0,U,39485,999,56956,.75145E-3,.114E-5,0
KAZEOSAT 1,2014-024A,2026-07-16T20:34:42.712320,14.42037401,.000122,98.3200,269.5643,82.6052,277.5276,0,U,39731,999,64283,.12578E-4,-.1E-7,0
COSMOS 2496 (RODNIK-S 10),2014-028A,2026-07-16T19:22:03.279360,12.42879418,.0020804,82.4453,90.1803,17.5292,342.6501,0,U,39761,999,55119,.25149E-3,.45E-6,0
COSMOS 2497 (RODNIK-S 11),2014-028B,2026-07-16T20:41:49.845408,12.42895072,.0021272,82.4503,91.8469,12.4496,347.7105,0,U,39762,999,55120,.79409E-4,.21E-6,0
COSMOS 2498 (RODNIK-S 12),2014-028C,2026-07-16T20:06:37.473408,12.42980931,.0021977,82.4462,90.3363,12.0299,348.1300,0,U,39763,999,55123,.26816E-3,.47E-6,0
HODOYOSHI-4,2014-033B,2026-07-16T19:41:57.952896,14.88193625,.002275,97.5455,21.2146,203.8790,156.1374,0,U,40011,999,65321,.1072E-3,.94E-5,0
UNISAT-6,2014-033C,2026-07-16T09:05:34.323936,14.88368938,.0044093,97.7910,349.5845,333.7883,26.1102,0,U,40012,999,65050,.1178E-3,.1053E-4,0
DEIMOS-2,2014-033D,2026-07-16T20:35:48.814368,14.93796821,.0001106,97.5784,71.2995,110.1143,250.0196,0,U,40013,999,64215,.73841E-4,.729E-5,0
BUGSAT-1 (TITA),2014-033E,2026-07-16T19:25:16.069728,15.15891555,.002894,98.0433,292.0970,80.5442,279.9058,0,U,40014,999,66032,.20223E-3,.3836E-4,0
SAUDISAT 4,2014-033G,2026-07-16T09:38:55.951872,14.79576218,.0044157,97.7619,342.5326,340.1095,19.8394,0,U,40016,999,65039,.35268E-4,.216E-5,0
APRIZESAT 9,2014-033J,2026-07-16T07:48:22.272192,14.74253373,.0067465,97.9096,329.8172,106.3797,254.4843,0,U,40018,999,64785,.51155E-4,.298E-5,0
BRITE-CA1 (TORONTO),2014-033L,2026-07-16T19:07:57.386208,14.72724378,.007856,97.9774,326.1854,181.1277,178.9766,0,U,40020,999,64657,.84822E-4,.514E-5,0
DUCHIFAT-1,2014-033M,2026-07-16T03:00:49.893408,15.71200075,.00027704,98.0416,260.5020,239.6355,120.4633,0,U,40021,999,66028,.68520431E-3,.87055E-3,0
NANOSATC-BR1,2014-033Q,2026-07-16T15:56:19.322592,15.32357003,.000527,98.0704,232.6831,92.5850,267.5993,0,U,40024,999,65849,.31274E-3,.9688E-4,0
