GOMX-1                  
1 39430U 13066Q   26197.80535012  .00000663  00000+0  10639-3 0  9990
2 39430  97.6462  36.3989 0128111 343.0273  16.6667 14.69544995674262
CUBEBUG-2 (LO-74)       
1 39440U 13066AA  26197.80263671  .00002156  00000+0  20214-3 0  9999
2 39440  97.8917 146.9130 0055539 289.9004  69.6236 14.93973680681418
NEE-02 KRYSAOR          
1 39441U 13066AB  26197.35207889  .00001071  00000+0  12224-3 0  9996
2 39441  97.8898 136.3620 0065307 335.4659  24.3453 14.86741614680534
FUNCUBE-1 (AO-73)       
1 39444U 13066AE  26197.48559537  .00003947  00000+0  24422-3 0  9990
2 39444  97.8291 169.5530 0037986 103.5264 257.0201 15.09827473684084
UWE-3                   
1 39446U 13066AG  26197.82397772  .00002047  00000+0  17840-3 0  9997
2 39446  97.8716 154.1042 0047571 218.9248 140.8545 14.97205791682010
SMDC ONE 2.4            
1 39469U 13072H   26197.56731812  .00009614  00000+0  35690-3 0  9997
2 39469 120.4894 105.5704 0148115  49.9439 311.4522 15.18838571122292
COSMOS 2488 (RODNIK-S 7)
1 39483U 13076A   26197.90174862  .00000076  00000+0  47385-3 0  9998
2 39483  82.4858 150.1838 0020558  33.9645 326.2747 12.42906459569586
COSMOS 2489 (RODNIK-S 8)
1 39484U 13076B   26197.87757550  .00000070  00000+0  43523-3 0  9990
2 39484  82.4894 151.5874 0022372  33.7288 326.5210 12.42880288569634
COSMOS 2490 (RODNIK-S 9)
1 39485U 13076C   26197.84950383  .00000114  00000+0  75145-3 0  9991
2 39485  82.4841 149.6594 0022762  48.7056 311.5979 12.42879411569560
KAZEOSAT 1              
1 39731U 14024A   26197.85743880 -.00000001  00000+0  12578-4 0  9990
2 39731  98.3200 269.5643 0001220  82.6052 277.5276 14.42037401642835
COSMOS 2496 (RODNIK-S *)
1 39761U 14028A   26197.80698240  .00000045  00000+0  25149-3 0  9995
2 39761  82.4453  90.1803 0020804  17.5292 342.6501 12.42879418551193
COSMOS 2497 (RODNIK-S *)
1 39762U 14028B   26197.86238247  .00000021  00000+0  79409-4 0  9992
2 39762  82.4503  91.8469 0021272  12.4496 347.7105 12.42895072551208
COSMOS 2498 (RODNIK-S *)
1 39763U 14028C   26197.83793372  .00000047  00000+0  26816-3 0  9996
2 39763  82.4462  90.3363 0021977  12.0299 348.1300 12.42980931551233
HODOYOSHI-4             
1 40011U 14033B   26197.82080964  .00000940  00000+0  10720-3 0  9994
2 40011  97.5455  21.2146 0022750 203.8790 156.1374 14.88193625653215
UNISAT-6                
1 40012U 14033C   26197.37886949  .00001053  00000+0  11780-3 0  9995
2 40012  97.7910 349.5845 0044093 333.7883  26.1102 14.88368938650501
DEIMOS-2                
1 40013U 14033D   26197.85820387  .00000729  00000+0  73841-4 0  9999
2 40013  97.5784  71.2995 0001106 110.1143 250.0196 14.93796821642153
BUGSAT-1 (TITA)         
1 40014U 14033E   26197.80921377  .00003836  00000+0  20223-3 0  9993
2 40014  98.0433 292.0970 0028940  80.5442 279.9058 15.15891555660325
SAUDISAT 4              
1 40016U 14033G   26197.40203648  .00000216  00000+0  35268-4 0  9990
2 40016  97.7619 342.5326 0044157 340.1095  19.8394 14.79576218650397
APRIZESAT 9             
1 40018U 14033J   26197.32525778  .00000298  00000+0  51155-4 0  9997
2 40018  97.9096 329.8172 0067465 106.3797 254.4843 14.74253373647857
BRITE-CA1 (TORONTO)     
1 40020U 14033L   26197.79719197  .00000514  00000+0  84822-4 0  9999
2 40020  97.9774 326.1854 0078560 181.1277 178.9766 14.72724378646570
DUCHIFAT-1              
1 40021U 14033M   26197.12557747  .00087055  00000+0  68520-3 0  9999
2 40021  98.0416 260.5020 0002770 239.6355 120.4633 15.71200075660280
NANOSATC-BR1            
1 40024U 14033Q   26197.66411253  .00009688  00000+0  31274-3 0  9994
2 40024  98.0704 232.6831 0005270  92.5850 267.5993 15.32357003658490
